{
  "links" : {
    "next" : "https://api.nasa.gov/neo/rest/v1/feed?start_date=2015-05-23&end_date=2015-05-23&detailed=true&api_key=t0TVs3DtDT2H8Oy2Zy8m2eVrNsAVKAexjcZXUckd",
    "prev" : "https://api.nasa.gov/neo/rest/v1/feed?start_date=2015-05-21&end_date=2015-05-21&detailed=true&api_key=t0TVs3DtDT2H8Oy2Zy8m2eVrNsAVKAexjcZXUckd",
    "self" : "https://api.nasa.gov/neo/rest/v1/feed?start_date=2015-05-22&end_date=2015-05-22&detailed=true&api_key=t0TVs3DtDT2H8Oy2Zy8m2eVrNsAVKAexjcZXUckd"
  },
  "element_count" : 6,
  "near_earth_objects" : {
    "2015-05-22" : [ {
      "links" : {
        "self" : "https://api.nasa.gov/neo/rest/v1/neo/3588065?api_key=t0TVs3DtDT2H8Oy2Zy8m2eVrNsAVKAexjcZXUckd"
      },
      "neo_reference_id" : "3588065",
      "name" : "(2011 WV4)",
      "nasa_jpl_url" : "http://ssd.jpl.nasa.gov/sbdb.cgi?sstr=3588065",
      "absolute_magnitude_h" : 22.7,
      "estimated_diameter" : {
        "kilometers" : {
          "estimated_diameter_min" : 0.0766575574,
          "estimated_diameter_max" : 0.1714115092
        },
        "meters" : {
          "estimated_diameter_min" : 76.6575573531,
          "estimated_diameter_max" : 171.4115092306
        },
        "miles" : {
          "estimated_diameter_min" : 0.0476327831,
          "estimated_diameter_max" : 0.1065101409
        },
        "feet" : {
          "estimated_diameter_min" : 251.5011804664,
          "estimated_diameter_max" : 562.3737359442
        }
      },
      "is_potentially_hazardous_asteroid" : false,
      "close_approach_data" : [ {
        "close_approach_date" : "2015-05-22",
        "epoch_date_close_approach" : 1432278000000,
        "relative_velocity" : {
          "kilometers_per_second" : "11.0463970658",
          "kilometers_per_hour" : "39767.0294368487",
          "miles_per_hour" : "24709.6855964686"
        },
        "miss_distance" : {
          "astronomical" : "0.0658008659",
          "lunar" : "25.5965385437",
          "kilometers" : "9843670",
          "miles" : "6116573"
        },
        "orbiting_body" : "Earth"
      } ],
      "orbital_data" : {
        "orbit_id" : "17",
        "orbit_determination_date" : "2017-04-06 08:51:58",
        "orbit_uncertainty" : "2",
        "minimum_orbit_intersection" : ".0275577",
        "jupiter_tisserand_invariant" : "5.269",
        "epoch_osculation" : "2458000.5",
        "eccentricity" : ".2992250703245194",
        "semi_major_axis" : "1.188980567310442",
        "inclination" : "11.83637961164929",
        "ascending_node_longitude" : "46.60541406149127",
        "orbital_period" : "473.5442436288906",
        "perihelion_distance" : ".8332077734424879",
        "perihelion_argument" : "278.1223235854412",
        "aphelion_distance" : "1.544753361178395",
        "perihelion_time" : "2458177.862187923600",
        "mean_anomaly" : "225.1648953365072",
        "mean_motion" : ".760224635487548",
        "equinox" : "J2000"
      }
    }, {
      "links" : {
        "self" : "https://api.nasa.gov/neo/rest/v1/neo/3596037?api_key=t0TVs3DtDT2H8Oy2Zy8m2eVrNsAVKAexjcZXUckd"
      },
      "neo_reference_id" : "3596037",
      "name" : "(2012 BD14)",
      "nasa_jpl_url" : "http://ssd.jpl.nasa.gov/sbdb.cgi?sstr=3596037",
      "absolute_magnitude_h" : 26.5,
      "estimated_diameter" : {
        "kilometers" : {
          "estimated_diameter_min" : 0.0133215567,
          "estimated_diameter_max" : 0.0297879063
        },
        "meters" : {
          "estimated_diameter_min" : 13.3215566698,
          "estimated_diameter_max" : 29.7879062798
        },
        "miles" : {
          "estimated_diameter_min" : 0.008277629,
          "estimated_diameter_max" : 0.0185093411
        },
        "feet" : {
          "estimated_diameter_min" : 43.7058959846,
          "estimated_diameter_max" : 97.7293544391
        }
      },
      "is_potentially_hazardous_asteroid" : false,
      "close_approach_data" : [ {
        "close_approach_date" : "2015-05-22",
        "epoch_date_close_approach" : 1432278000000,
        "relative_velocity" : {
          "kilometers_per_second" : "8.0688583113",
          "kilometers_per_hour" : "29047.8899205178",
          "miles_per_hour" : "18049.2291564462"
        },
        "miss_distance" : {
          "astronomical" : "0.2343007295",
          "lunar" : "91.1429824829",
          "kilometers" : "35050892",
          "miles" : "21779614"
        },
        "orbiting_body" : "Earth"
      } ],
      "orbital_data" : {
        "orbit_id" : "15",
        "orbit_determination_date" : "2017-04-06 08:51:20",
        "orbit_uncertainty" : "5",
        "minimum_orbit_intersection" : ".00794758",
        "jupiter_tisserand_invariant" : "5.972",
        "epoch_osculation" : "2458000.5",
        "eccentricity" : ".2404473889271889",
        "semi_major_axis" : "1.017581859972657",
        "inclination" : "1.535572205347119",
        "ascending_node_longitude" : "292.145132714904",
        "orbital_period" : "374.9319593523397",
        "perihelion_distance" : ".7729069587225594",
        "perihelion_argument" : "293.6766440064006",
        "aphelion_distance" : "1.262256761222755",
        "perihelion_time" : "2457905.228083193553",
        "mean_anomaly" : "91.47763799481719",
        "mean_motion" : ".9601742156680022",
        "equinox" : "J2000"
      }
    }, {
      "links" : {
        "self" : "https://api.nasa.gov/neo/rest/v1/neo/3753308?api_key=t0TVs3DtDT2H8Oy2Zy8m2eVrNsAVKAexjcZXUckd"
      },
      "neo_reference_id" : "3753308",
      "name" : "(2016 JR33)",
      "nasa_jpl_url" : "http://ssd.jpl.nasa.gov/sbdb.cgi?sstr=3753308",
      "absolute_magnitude_h" : 23.6,
      "estimated_diameter" : {
        "kilometers" : {
          "estimated_diameter_min" : 0.0506471459,
          "estimated_diameter_max" : 0.1132504611
        },
        "meters" : {
          "estimated_diameter_min" : 50.6471458835,
          "estimated_diameter_max" : 113.2504610618
        },
        "miles" : {
          "estimated_diameter_min" : 0.0314706677,
          "estimated_diameter_max" : 0.0703705522
        },
        "feet" : {
          "estimated_diameter_min" : 166.1651821003,
          "estimated_diameter_max" : 371.5566426699
        }
      },
      "is_potentially_hazardous_asteroid" : false,
      "close_approach_data" : [ {
        "close_approach_date" : "2015-05-22",
        "epoch_date_close_approach" : 1432278000000,
        "relative_velocity" : {
          "kilometers_per_second" : "14.3116791932",
          "kilometers_per_hour" : "51522.0450956629",
          "miles_per_hour" : "32013.7951873579"
        },
        "miss_distance" : {
          "astronomical" : "0.2620669446",
          "lunar" : "101.9440383911",
          "kilometers" : "39204656",
          "miles" : "24360644"
        },
        "orbiting_body" : "Earth"
      } ],
      "orbital_data" : {
        "orbit_id" : "16",
        "orbit_determination_date" : "2017-04-06 08:25:53",
        "orbit_uncertainty" : "7",
        "minimum_orbit_intersection" : ".0869685",
        "jupiter_tisserand_invariant" : "5.919",
        "epoch_osculation" : "2458000.5",
        "eccentricity" : ".2135248612529886",
        "semi_major_axis" : "1.028165476695847",
        "inclination" : "9.002776202339644",
        "ascending_node_longitude" : "217.0265599556528",
        "orbital_period" : "380.796504106132",
        "perihelion_distance" : ".8086265859392534",
        "perihelion_argument" : "137.0092685922858",
        "aphelion_distance" : "1.247704367452441",
        "perihelion_time" : "2458005.223386710933",
        "mean_anomaly" : "355.534572409147",
        "mean_motion" : ".9453868302836734",
        "equinox" : "J2000"
      }
    } ]
  }
}